NORAD_CAT_ID,OBJECT_NAME,OBJECT_TYPE,EPOCH,MEAN_MOTION,ECCENTRICITY,INCLINATION,RA_OF_ASC_NODE,ARG_OF_PERICENTER,MEAN_ANOMALY,BSTAR,MEAN_MOTION_DOT,MEAN_MOTION_DDOT,TLE_LINE0,TLE_LINE1,TLE_LINE2,SEMIMAJOR_AXIS,PERIOD,APOGEE,PERIGEE,DECAYED
56781.0,STARLINK-5989,PAYLOAD,2023-11-18 22:45:51,14.98324326,0.0002588,69.9994,306.8553,265.5182,94.5681,-4.8358e-05,-6.7e-06,0.0,0 STARLINK-5989,1 56781U 23078Q   23322.94851675 -.00000670  00000-0 -48358-4 0  9991,2 56781  69.9994 306.8553 0002588 265.5182  94.5681 14.98324326 26594,6950.21,96.107,573.874,570.277,0.0
56781.0,STARLINK-5989,PAYLOAD,2023-11-19 03:34:15,14.98325417,0.0002137,69.9994,306.3504,240.9887,119.1058,-3.368e-05,-4.95e-06,0.0,0 STARLINK-5989,1 56781U 23078Q   23323.14879564 -.00000495  00000-0 -33680-4 0  9998,2 56781  69.9994 306.3504 0002137 240.9887 119.1058 14.98325417 26880,6950.207,96.107,573.557,570.587,0.0
56781.0,STARLINK-5989,PAYLOAD,2023-11-19 08:22:40,14.98328755,0.0002411,69.9995,305.8449,265.0231,95.0653,-3.5256e-05,-5.14e-06,0.0,0 STARLINK-5989,1 56781U 23078Q   23323.34907430 -.00000514  00000-0 -35256-4 0  9997,2 56781  69.9995 305.8449 0002411 265.0231  95.0653 14.98328755 26655,6950.197,96.107,573.737,570.386,0.0
56781.0,STARLINK-5989,PAYLOAD,2023-11-19 22:47:52,14.98330009,0.0002586,69.9989,304.3296,271.0597,89.0266,2.7028e-05,2.3e-06,0.0,0 STARLINK-5989,1 56781U 23078Q   23323.94991132  .00000230  00000-0  27028-4 0  9996,2 56781  69.9989 304.3296 0002586 271.0597  89.0266 14.98330009 26745,6950.193,96.107,573.855,570.261,0.0
56781.0,STARLINK-5989,PAYLOAD,2023-11-20 03:36:16,14.98336355,0.0002211,69.9989,303.8248,269.8434,90.2472,-5.2904e-05,-7.24e-06,0.0,0 STARLINK-5989,1 56781U 23078Q   23324.15018944 -.00000724  00000-0 -52904-4 0  9992,2 56781  69.9989 303.8248 0002211 269.8434  90.2472 14.98336355 27032,6950.173,96.107,573.575,570.502,0.0
56781.0,STARLINK-5989,PAYLOAD,2023-11-20 08:24:37,14.9837411,0.0002192,69.9991,303.3194,271.561,88.5298,0.00064728,7.647e-05,0.0,0 STARLINK-5989,1 56781U 23078Q   23324.35043029  .00007647  00000-0  64728-3 0  9991,2 56781  69.9991 303.3194 0002192 271.5610  88.5298 14.98374110 27064,6950.056,96.104,573.445,570.398,0.0
56781.0,STARLINK-5989,PAYLOAD,2023-11-20 11:36:56,14.98335986,0.0002389,69.9988,302.9833,266.4905,93.5981,8.3203e-05,9e-06,0.0,0 STARLINK-5989,1 56781U 23078Q   23324.48398519  .00000900  00000-0  83203-4 0  9997,2 56781  69.9988 302.9833 0002389 266.4905  93.5981 14.98335986 26829,6950.174,96.107,573.7,570.379,0.0
56781.0,STARLINK-5989,PAYLOAD,2023-11-20 16:25:21,14.98327346,0.0002561,69.9986,302.4792,270.7669,89.3197,-2.3803e-05,-3.77e-06,0.0,0 STARLINK-5989,1 56781U 23078Q   23324.68427293 -.00000377  00000-0 -23803-4 0  9991,2 56781  69.9986 302.4792 0002561 270.7669  89.3197 14.98327346 27119,6950.201,96.107,573.846,570.286,0.0
56781.0,STARLINK-5989,PAYLOAD,2023-11-20 22:49:53,14.98326579,0.0002642,69.9988,301.8056,270.2561,89.8295,8.7075e-06,1.1e-07,0.0,0 STARLINK-5989,1 56781U 23078Q   23324.95131236  .00000011  00000-0  87075-5 0  9995,2 56781  69.9988 301.8056 0002642 270.2561  89.8295 14.98326579 26898,6950.203,96.107,573.905,570.232,0.0
56781.0,STARLINK-5989,PAYLOAD,2023-11-21 08:26:44,14.98291451,0.0002126,70.0004,300.7955,287.7138,72.3789,-0.00041665,-5.055e-05,0.0,0 STARLINK-5989,1 56781U 23078Q   23325.35190693 -.00005055  00000-0 -41665-3 0  9990,2 56781  70.0004 300.7955 0002126 287.7138  72.3789 14.98291451 27218,6950.312,96.109,573.655,570.699,0.0
56781.0,STARLINK-5989,PAYLOAD,2023-11-22 03:40:18,14.98306143,0.0002142,70.0007,298.7758,255.5424,104.5497,0.00042143,4.936e-05,0.0,0 STARLINK-5989,1 56781U 23078Q   23326.15299757  .00004936  00000-0  42143-3 0  9997,2 56781  70.0007 298.7758 0002142 255.5424 104.5497 14.98306143 27339,6950.267,96.109,573.62,570.643,0.0
56781.0,STARLINK-5989,PAYLOAD,2023-11-22 08:28:42,14.98336661,0.0002347,70.0004,298.2702,287.5798,72.5104,9.3107e-05,1.018e-05,0.0,0 STARLINK-5989,1 56781U 23078Q   23326.35326621  .00001018  00000-0  93107-4 0  9995,2 56781  70.0004 298.2702 0002347 287.5798  72.5104 14.98336661 27366,6950.172,96.107,573.668,570.406,0.0
56781.0,STARLINK-5989,PAYLOAD,2023-11-23 03:42:19,14.98331181,0.0002192,69.9998,296.252,265.3333,94.7576,-4.42e-05,-6.2e-06,0.0,0 STARLINK-5989,1 56781U 23078Q   23327.15439018 -.00000620  00000-0 -44200-4 0  9999,2 56781  69.9998 296.2520 0002192 265.3333  94.7576 14.98331181 27482,6950.189,96.107,573.578,570.531,0.0
56781.0,STARLINK-5989,PAYLOAD,2023-11-23 08:30:43,14.98330862,0.0001847,70.0001,295.7449,258.5299,101.5653,7.3081e-05,7.79e-06,0.0,0 STARLINK-5989,1 56781U 23078Q   23327.35466781  .00000779  00000-0  73081-4 0  9990,2 56781  70.0001 295.7449 0001847 258.5299 101.5653 14.98330862 27258,6950.19,96.107,573.339,570.772,0.0
56781.0,STARLINK-5989,PAYLOAD,2023-11-24 03:44:20,14.98326563,0.0002184,69.9997,293.7257,259.7717,100.3196,-3.8233e-05,-5.49e-06,0.0,0 STARLINK-5989,1 56781U 23078Q   23328.15579408 -.00000549  00000-0 -38233-4 0  9997,2 56781  69.9997 293.7257 0002184 259.7717 100.3196 14.98326563 27631,6950.204,96.107,573.586,570.551,0.0
56781.0,STARLINK-5989,PAYLOAD,2023-11-24 08:32:44,14.98325343,0.0002056,70.0004,293.2212,249.6185,110.4753,-1.058e-05,-2.19e-06,0.0,0 STARLINK-5989,1 56781U 23078Q   23328.35607504 -.00000219  00000-0 -10580-4 0  9997,2 56781  70.0004 293.2212 0002056 249.6185 110.4753 14.98325343 27405,6950.207,96.107,573.501,570.643,0.0
56781.0,STARLINK-5989,PAYLOAD,2023-11-25 03:46:16,14.98382005,0.0001864,70.0008,291.2031,240.5591,119.5383,0.00062482,7.38e-05,0.0,0 STARLINK-5989,1 56781U 23078Q   23329.15714035  .00007380  00000-0  62482-3 0  9995,2 56781  70.0008 291.2031 0001864 240.5591 119.5383 14.98382005 27781,6950.032,96.104,573.193,570.602,0.0
56781.0,STARLINK-5989,PAYLOAD,2023-11-25 06:58:35,14.98343449,0.0001615,70.0008,290.8663,267.9638,92.1336,0.00017008,1.938e-05,0.0,0 STARLINK-5989,1 56781U 23078Q   23329.29069122  .00001938  00000-0  17008-3 0  9997,2 56781  70.0008 290.8663 0001615 267.9638  92.1336 14.98343449 27543,6950.151,96.106,573.139,570.894,0.0
56781.0,STARLINK-5989,PAYLOAD,2023-11-25 21:23:49,14.98323342,0.0002139,70.0049,289.357,189.3506,170.7614,6.001e-05,6.23e-06,0.0,0 STARLINK-5989,1 56781U 23078Q   23329.89154280  .00000623  00000-0  60010-4 0  9995,2 56781  70.0049 289.3570 0002139 189.3506 170.7614 14.98323342 27633,6950.213,96.107,573.565,570.592,0.0
56781.0,STARLINK-5989,PAYLOAD,2023-11-26 00:36:05,14.98321443,0.0002328,70.0021,289.0171,231.4414,128.6537,-1.7736e-05,-3.04e-06,0.0,0 STARLINK-5989,1 56781U 23078Q   23330.02506573 -.00000304  00000-0 -17736-4 0  9993,2 56781  70.0021 289.0171 0002328 231.4414 128.6537 14.98321443 27911,6950.219,96.108,573.702,570.466,0.0
56781.0,STARLINK-5989,PAYLOAD,2023-11-26 07:00:37,14.98329622,0.0002208,70.0008,288.3417,251.648,108.4439,3.8385e-05,3.65e-06,0.0,0 STARLINK-5989,1 56781U 23078Q   23330.29210003  .00000365  00000-0  38385-4 0  9990,2 56781  70.0008 288.3417 0002208 251.6480 108.4439 14.98329622 27953,6950.194,96.107,573.594,570.524,0.0
56781.0,STARLINK-5989,PAYLOAD,2023-11-26 21:25:51,14.98317909,0.0001358,70.0043,286.8271,237.352,122.7508,-0.00018005,-2.239e-05,0.0,0 STARLINK-5989,1 56781U 23078Q   23330.89295657 -.00002239  00000-0 -18005-3 0  9994,2 56781  70.0043 286.8271 0001358 237.3520 122.7508 14.98317909 27786,6950.23,96.108,573.039,571.151,0.0
56781.0,STARLINK-5989,PAYLOAD,2023-11-27 03:50:24,14.98329252,0.0001847,70.0015,286.1539,240.5868,119.5107,-0.00079269,-9.537e-05,0.0,0 STARLINK-5989,1 56781U 23078Q   23331.16000838 -.00009537  00000-0 -79269-3 0  9997,2 56781  70.0015 286.1539 0001847 240.5868 119.5107 14.98329252 28086,6950.195,96.107,573.344,570.777,0.0
56781.0,STARLINK-5989,PAYLOAD,2023-11-27 07:02:41,14.98318614,0.0001856,70.001,285.8166,265.8614,94.2332,-0.00087841,-0.00010554,0.0,0 STARLINK-5989,1 56781U 23078Q   23331.29353817 -.00010554  00000-0 -87841-3 0  9995,2 56781  70.0010 285.8166 0001856 265.8614  94.2332 14.98318614 28104,6950.228,96.108,573.383,570.803,0.0
56781.0,STARLINK-5989,PAYLOAD,2023-11-27 21:27:54,14.982997,0.0002115,70.0026,284.3007,258.0958,101.9964,-9.9962e-05,-1.284e-05,0.0,0 STARLINK-5989,1 56781U 23078Q   23331.89437556 -.00001284  00000-0 -99962-4 0  9992,2 56781  70.0026 284.3007 0002115 258.0958 101.9964 14.98299700 27934,6950.287,96.109,573.622,570.682,0.0
56781.0,STARLINK-5989,PAYLOAD,2023-11-28 02:16:16,14.98319273,0.0002241,70.0029,283.7966,231.6524,128.4434,0.00010845,1.201e-05,0.0,0 STARLINK-5989,1 56781U 23078Q   23332.09463956  .00001201  00000-0  10845-3 0  9997,2 56781  70.0029 283.7966 0002241 231.6524 128.4434 14.98319273 28227,6950.226,96.108,573.649,570.534,0.0
56781.0,STARLINK-5989,PAYLOAD,2023-11-28 07:04:40,14.98327183,0.0001799,70.0024,283.2909,285.9383,74.1578,0.00020659,2.373e-05,0.0,0 STARLINK-5989,1 56781U 23078Q   23332.29491738  .00002373  00000-0  20659-3 0  9993,2 56781  70.0024 283.2909 0001799 285.9383  74.1578 14.98327183 28254,6950.202,96.107,573.317,570.816,0.0
56781.0,STARLINK-5989,PAYLOAD,2023-11-28 19:53:44,14.98324219,0.000263,70.0007,281.9445,272.5806,87.5052,0.00043601,5.112e-05,0.0,0 STARLINK-5989,1 56781U 23078Q   23332.82898979  .00005112  00000-0  43601-3 0  9996,2 56781  70.0007 281.9445 0002630 272.5806  87.5052 14.98324219 28074,6950.211,96.107,573.904,570.248,0.0
56781.0,STARLINK-5989,PAYLOAD,2023-11-29 03:54:24,14.98341853,0.0001989,70.0004,281.1014,244.5473,115.548,0.00024759,2.863e-05,0.0,0 STARLINK-5989,1 56781U 23078Q   23333.16278397  .00002863  00000-0  24759-3 0  9993,2 56781  70.0004 281.1014 0001989 244.5473 115.5480 14.98341853 28384,6950.156,96.106,573.404,570.639,0.0
56781.0,STARLINK-5989,PAYLOAD,2023-11-29 07:06:40,14.98340659,0.0002696,69.9999,280.7644,274.1509,85.9342,0.00053328,6.277e-05,0.0,0 STARLINK-5989,1 56781U 23078Q   23333.29629737  .00006277  00000-0  53328-3 0  9992,2 56781  69.9999 280.7644 0002696 274.1509  85.9342 14.98340659 28147,6950.16,96.106,573.899,570.151,0.0
